STARLINK-36621          
1 67561U 26016A   26034.58335648 -.01628927  00000+0 -64451-2 0  9995
2 67561  97.2818  93.2317 0001282  77.4565 301.8479 15.89355161  2563
STARLINK-36398          
1 67562U 26016B   26034.58335648 -.01838277  90869-3 -63622-2 0  9992
2 67562  97.2816  93.2338 0001288  75.1803 308.7713 15.89597008  2544
STARLINK-36403          
1 67563U 26016C   26034.58335648 -.01831627  90439-3 -62744-2 0  9992
2 67563  97.2819  93.2358 0001327  83.2362 304.7499 15.89801204  2660
STARLINK-36593          
1 67564U 26016D   26034.58335648 -.01811684  88821-3 -61316-2 0  9990
2 67564  97.2818  93.2374 0001289  84.2160 308.4558 15.90039664  2507
STARLINK-35725          
1 67565U 26016E   26034.58335648 -.01811308  88943-3 -60756-2 0  9996
2 67565  97.2813  93.2387 0001333  74.2896 321.9043 15.90217805  2551
STARLINK-36394          
1 67566U 26016F   26034.58335648 -.01799827  88540-3 -58168-2 0  9995
2 67566  97.2803  93.2447 0001394  84.3872 326.8301 15.90952228  2669
STARLINK-36352          
1 67567U 26016G   26034.58335648 -.01801293  88471-3 -58898-2 0  9990
2 67567  97.2804  93.2426 0001343  77.6372 329.1835 15.90722370  2562
STARLINK-36435          
1 67568U 26016H   26034.58335648 -.01813365  89975-3 -57986-2 0  9991
2 67568  97.2803  93.2464 0001405  86.3013 328.8081 15.91163310  2565
STARLINK-36575          
1 67569U 26016J   26034.58335648 -.01793330  88327-3 -56696-2 0  9998
2 67569  97.2801  93.2488 0001327  84.5874 334.9132 15.91384618  2569
STARLINK-36562          
1 67570U 26016K   26034.58335648 -.01786598  87856-3 -56004-2 0  9997
2 67570  97.2797  93.2499 0001440  82.2670 340.5554 15.91550582  2568
STARLINK-36578          
1 67571U 26016L   26034.58335648 -.01785151  87898-3 -55400-2 0  9997
2 67571  97.2796  93.2512 0001305  84.2824 342.2818 15.91746941  2543
STARLINK-36350          
1 67572U 26016M   26034.58335648 -.01767170  86461-3 -54177-2 0  9994
2 67572  97.2798  93.2532 0001462  79.0872 352.0797 15.91982210  2453
