CCSDS_OMM_VERS = 2.0
CREATION_DATE  = 
ORIGINATOR     = 

OBJECT_NAME    = STARLINK-36621
OBJECT_ID      = 2026-016A
CENTER_NAME    = EARTH
REF_FRAME      = TEME
TIME_SYSTEM    = UTC
MEAN_ELEMENT_THEORY = SGP/SGP4

EPOCH          = 2026-02-03T14:00:01.999872
MEAN_MOTION    = 15.89355161
ECCENTRICITY   = .00012823
INCLINATION    = 97.2818
RA_OF_ASC_NODE = 93.2317
ARG_OF_PERICENTER = 77.4565
MEAN_ANOMALY   = 301.8479

EPHEMERIS_TYPE = 0
CLASSIFICATION_TYPE = U
NORAD_CAT_ID   = 67561
ELEMENT_SET_NO = 999
REV_AT_EPOCH   = 256
BSTAR          = -.64450677E-2
MEAN_MOTION_DOT = -.1628927E-1
MEAN_MOTION_DDOT = 0

CCSDS_OMM_VERS = 2.0
CREATION_DATE  = 
ORIGINATOR     = 

OBJECT_NAME    = STARLINK-36398
OBJECT_ID      = 2026-016B
CENTER_NAME    = EARTH
REF_FRAME      = TEME
TIME_SYSTEM    = UTC
MEAN_ELEMENT_THEORY = SGP/SGP4

EPOCH          = 2026-02-03T14:00:01.999872
MEAN_MOTION    = 15.89597008
ECCENTRICITY   = .00012884
INCLINATION    = 97.2816
RA_OF_ASC_NODE = 93.2338
ARG_OF_PERICENTER = 75.1803
MEAN_ANOMALY   = 308.7713

EPHEMERIS_TYPE = 0
CLASSIFICATION_TYPE = U
NORAD_CAT_ID   = 67562
ELEMENT_SET_NO = 999
REV_AT_EPOCH   = 254
BSTAR          = -.63621552E-2
MEAN_MOTION_DOT = -.1838277E-1
MEAN_MOTION_DDOT = .90869457E-3

CCSDS_OMM_VERS = 2.0
CREATION_DATE  = 
ORIGINATOR     = 

OBJECT_NAME    = STARLINK-36403
OBJECT_ID      = 2026-016C
CENTER_NAME    = EARTH
REF_FRAME      = TEME
TIME_SYSTEM    = UTC
MEAN_ELEMENT_THEORY = SGP/SGP4

EPOCH          = 2026-02-03T14:00:01.999872
MEAN_MOTION    = 15.89801204
ECCENTRICITY   = .0001327
INCLINATION    = 97.2819
RA_OF_ASC_NODE = 93.2358
ARG_OF_PERICENTER = 83.2362
MEAN_ANOMALY   = 304.7499

EPHEMERIS_TYPE = 0
CLASSIFICATION_TYPE = U
NORAD_CAT_ID   = 67563
ELEMENT_SET_NO = 999
REV_AT_EPOCH   = 266
BSTAR          = -.62744336E-2
MEAN_MOTION_DOT = -.1831627E-1
MEAN_MOTION_DDOT = .90438882E-3

CCSDS_OMM_VERS = 2.0
CREATION_DATE  = 
ORIGINATOR     = 

OBJECT_NAME    = STARLINK-36593
OBJECT_ID      = 2026-016D
CENTER_NAME    = EARTH
REF_FRAME      = TEME
TIME_SYSTEM    = UTC
MEAN_ELEMENT_THEORY = SGP/SGP4

EPOCH          = 2026-02-03T14:00:01.999872
MEAN_MOTION    = 15.90039664
ECCENTRICITY   = .0001289
INCLINATION    = 97.2818
RA_OF_ASC_NODE = 93.2374
ARG_OF_PERICENTER = 84.2160
MEAN_ANOMALY   = 308.4558

EPHEMERIS_TYPE = 0
CLASSIFICATION_TYPE = U
NORAD_CAT_ID   = 67564
ELEMENT_SET_NO = 999
REV_AT_EPOCH   = 250
BSTAR          = -.61315915E-2
MEAN_MOTION_DOT = -.1811684E-1
MEAN_MOTION_DDOT = .88820794E-3

CCSDS_OMM_VERS = 2.0
CREATION_DATE  = 
ORIGINATOR     = 

OBJECT_NAME    = STARLINK-35725
OBJECT_ID      = 2026-016E
CENTER_NAME    = EARTH
REF_FRAME      = TEME
TIME_SYSTEM    = UTC
MEAN_ELEMENT_THEORY = SGP/SGP4

EPOCH          = 2026-02-03T14:00:01.999872
MEAN_MOTION    = 15.90217805
ECCENTRICITY   = .00013335
INCLINATION    = 97.2813
RA_OF_ASC_NODE = 93.2387
ARG_OF_PERICENTER = 74.2896
MEAN_ANOMALY   = 321.9043

EPHEMERIS_TYPE = 0
CLASSIFICATION_TYPE = U
NORAD_CAT_ID   = 67565
ELEMENT_SET_NO = 999
REV_AT_EPOCH   = 255
BSTAR          = -.60756395E-2
MEAN_MOTION_DOT = -.1811308E-1
MEAN_MOTION_DDOT = .88943149E-3

CCSDS_OMM_VERS = 2.0
CREATION_DATE  = 
ORIGINATOR     = 

OBJECT_NAME    = STARLINK-36394
OBJECT_ID      = 2026-016F
CENTER_NAME    = EARTH
REF_FRAME      = TEME
TIME_SYSTEM    = UTC
MEAN_ELEMENT_THEORY = SGP/SGP4

EPOCH          = 2026-02-03T14:00:01.999872
MEAN_MOTION    = 15.90952228
ECCENTRICITY   = .0001394
INCLINATION    = 97.2803
RA_OF_ASC_NODE = 93.2447
ARG_OF_PERICENTER = 84.3872
MEAN_ANOMALY   = 326.8301

EPHEMERIS_TYPE = 0
CLASSIFICATION_TYPE = U
NORAD_CAT_ID   = 67566
ELEMENT_SET_NO = 999
REV_AT_EPOCH   = 266
BSTAR          = -.58168209E-2
MEAN_MOTION_DOT = -.1799827E-1
MEAN_MOTION_DDOT = .88539553E-3

CCSDS_OMM_VERS = 2.0
CREATION_DATE  = 
ORIGINATOR     = 

OBJECT_NAME    = STARLINK-36352
OBJECT_ID      = 2026-016G
CENTER_NAME    = EARTH
REF_FRAME      = TEME
TIME_SYSTEM    = UTC
MEAN_ELEMENT_THEORY = SGP/SGP4

EPOCH          = 2026-02-03T14:00:01.999872
MEAN_MOTION    = 15.90722370
ECCENTRICITY   = .00013434
INCLINATION    = 97.2804
RA_OF_ASC_NODE = 93.2426
ARG_OF_PERICENTER = 77.6372
MEAN_ANOMALY   = 329.1835

EPHEMERIS_TYPE = 0
CLASSIFICATION_TYPE = U
NORAD_CAT_ID   = 67567
ELEMENT_SET_NO = 999
REV_AT_EPOCH   = 256
BSTAR          = -.58898198E-2
MEAN_MOTION_DOT = -.1801293E-1
MEAN_MOTION_DDOT = .88470961E-3

CCSDS_OMM_VERS = 2.0
CREATION_DATE  = 
ORIGINATOR     = 

OBJECT_NAME    = STARLINK-36435
OBJECT_ID      = 2026-016H
CENTER_NAME    = EARTH
REF_FRAME      = TEME
TIME_SYSTEM    = UTC
MEAN_ELEMENT_THEORY = SGP/SGP4

EPOCH          = 2026-02-03T14:00:01.999872
MEAN_MOTION    = 15.91163310
ECCENTRICITY   = .00014058
INCLINATION    = 97.2803
RA_OF_ASC_NODE = 93.2464
ARG_OF_PERICENTER = 86.3013
MEAN_ANOMALY   = 328.8081

EPHEMERIS_TYPE = 0
CLASSIFICATION_TYPE = U
NORAD_CAT_ID   = 67568
ELEMENT_SET_NO = 999
REV_AT_EPOCH   = 256
BSTAR          = -.5798611E-2
MEAN_MOTION_DOT = -.1813365E-1
MEAN_MOTION_DDOT = .89975199E-3

CCSDS_OMM_VERS = 2.0
CREATION_DATE  = 
ORIGINATOR     = 

OBJECT_NAME    = STARLINK-36575
OBJECT_ID      = 2026-016J
CENTER_NAME    = EARTH
REF_FRAME      = TEME
TIME_SYSTEM    = UTC
MEAN_ELEMENT_THEORY = SGP/SGP4

EPOCH          = 2026-02-03T14:00:01.999872
MEAN_MOTION    = 15.91384618
ECCENTRICITY   = .00013272
INCLINATION    = 97.2801
RA_OF_ASC_NODE = 93.2488
ARG_OF_PERICENTER = 84.5874
MEAN_ANOMALY   = 334.9132

EPHEMERIS_TYPE = 0
CLASSIFICATION_TYPE = U
NORAD_CAT_ID   = 67569
ELEMENT_SET_NO = 999
REV_AT_EPOCH   = 256
BSTAR          = -.56696144E-2
MEAN_MOTION_DOT = -.179333E-1
MEAN_MOTION_DDOT = .88326729E-3

CCSDS_OMM_VERS = 2.0
CREATION_DATE  = 
ORIGINATOR     = 

OBJECT_NAME    = STARLINK-36562
OBJECT_ID      = 2026-016K
CENTER_NAME    = EARTH
REF_FRAME      = TEME
TIME_SYSTEM    = UTC
MEAN_ELEMENT_THEORY = SGP/SGP4

EPOCH          = 2026-02-03T14:00:01.999872
MEAN_MOTION    = 15.91550582
ECCENTRICITY   = .00014404
INCLINATION    = 97.2797
RA_OF_ASC_NODE = 93.2499
ARG_OF_PERICENTER = 82.2670
MEAN_ANOMALY   = 340.5554

EPHEMERIS_TYPE = 0
CLASSIFICATION_TYPE = U
NORAD_CAT_ID   = 67570
ELEMENT_SET_NO = 999
REV_AT_EPOCH   = 256
BSTAR          = -.56003844E-2
MEAN_MOTION_DOT = -.1786598E-1
MEAN_MOTION_DDOT = .87856413E-3

CCSDS_OMM_VERS = 2.0
CREATION_DATE  = 
ORIGINATOR     = 

OBJECT_NAME    = STARLINK-36578
OBJECT_ID      = 2026-016L
CENTER_NAME    = EARTH
REF_FRAME      = TEME
TIME_SYSTEM    = UTC
MEAN_ELEMENT_THEORY = SGP/SGP4

EPOCH          = 2026-02-03T14:00:01.999872
MEAN_MOTION    = 15.91746941
ECCENTRICITY   = .00013053
INCLINATION    = 97.2796
RA_OF_ASC_NODE = 93.2512
ARG_OF_PERICENTER = 84.2824
MEAN_ANOMALY   = 342.2818

EPHEMERIS_TYPE = 0
CLASSIFICATION_TYPE = U
NORAD_CAT_ID   = 67571
ELEMENT_SET_NO = 999
REV_AT_EPOCH   = 254
BSTAR          = -.55400105E-2
MEAN_MOTION_DOT = -.1785151E-1
MEAN_MOTION_DDOT = .87897745E-3

CCSDS_OMM_VERS = 2.0
CREATION_DATE  = 
ORIGINATOR     = 

OBJECT_NAME    = STARLINK-36350
OBJECT_ID      = 2026-016M
CENTER_NAME    = EARTH
REF_FRAME      = TEME
TIME_SYSTEM    = UTC
MEAN_ELEMENT_THEORY = SGP/SGP4

EPOCH          = 2026-02-03T14:00:01.999872
MEAN_MOTION    = 15.91982210
ECCENTRICITY   = .00014622
INCLINATION    = 97.2798
RA_OF_ASC_NODE = 93.2532
ARG_OF_PERICENTER = 79.0872
MEAN_ANOMALY   = 352.0797

EPHEMERIS_TYPE = 0
CLASSIFICATION_TYPE = U
NORAD_CAT_ID   = 67572
ELEMENT_SET_NO = 999
REV_AT_EPOCH   = 245
BSTAR          = -.54177288E-2
MEAN_MOTION_DOT = -.176717E-1
MEAN_MOTION_DDOT = .86460775E-3

